[{"OBJECT_NAME":"STARLINK-34604","OBJECT_ID":"2025-150M","EPOCH":"2026-03-09T14:29:12.660000","MEAN_MOTION":14.98330941,"ECCENTRICITY":0.0003458,"INCLINATION":70.0022,"RA_OF_ASC_NODE":134.6858,"ARG_OF_PERICENTER":265.0859,"MEAN_ANOMALY":94.9905,"EPHEMERIS_TYPE":0,"CLASSIFICATION_TYPE":"U","NORAD_CAT_ID":64801,"ELEMENT_SET_NO":999,"REV_AT_EPOCH":3650,"BSTAR":0.00028954,"MEAN_MOTION_DOT":3.364e-5,"MEAN_MOTION_DDOT":0},{"OBJECT_NAME":"COSMOS 886 DEB","OBJECT_ID":"1976-126AF","EPOCH":"2026-03-09T23:31:01.873920","MEAN_MOTION":14.3102807,"ECCENTRICITY":0.04259179,"INCLINATION":65.888,"RA_OF_ASC_NODE":14.8915,"ARG_OF_PERICENTER":257.6926,"MEAN_ANOMALY":97.6185,"EPHEMERIS_TYPE":0,"CLASSIFICATION_TYPE":"U","NORAD_CAT_ID":9819,"ELEMENT_SET_NO":999,"REV_AT_EPOCH":42137,"BSTAR":0.0011909255,"MEAN_MOTION_DOT":8.527e-5,"MEAN_MOTION_DDOT":0}]
